TYVAK-0173              
1 48892U 21059P   26200.20320094  .00000726  00000+0  95608-4 0  9994
2 48892  96.0069 268.6012 0007098 282.5864  77.4560 14.81977833272985
MANDRAKE 2 ABLE         
1 48907U 21059AE  26200.46517232  .00013582  00000+0  19540-3 0  9995
2 48907  97.7031  32.7416 0004093 214.1561 145.9430 15.56189387282142
MANDRAKE 2 BAKER        
1 48908U 21059AF  26200.49076306  .00016075  00000+0  19197-3 0  9999
2 48908  97.6994  35.8740 0003129 200.3020 159.8112 15.61122598282339
PACE-1                  
1 48909U 21059AG  26200.52100814  .00083851  00000+0  33973-3 0  9990
2 48909  97.6712  42.4635 0003612 170.2516 189.8825 15.86049145282918
YAM-3                   
1 48915U 21059AN  26200.62755366  .00006384  00000+0  11899-3 0  9995
2 48915  97.7000  29.7202 0004199 220.7895 139.3041 15.49208164282014
FARADAY_PHOENIX         
1 48924U 21059AX  26200.51165055  .00162165  11615-4  59216-3 0  9997
2 48924  97.6756  42.3820 0005981 188.4056 171.7116 15.88406229282778
DEMO8 (TENZING)         
1 48951U 21059CA  26200.46860013  .00012812  00000+0  18470-3 0  9998
2 48951  97.7016  36.3740 0006042 213.4395 146.6478 15.56137253282322
FENGYUN 3E              
1 49008U 21062A   26200.61645352 -.00000049  00000+0 -25859-5 0  9992
2 49008  98.7504 203.6640 0002061  31.0891 329.0407 14.19906700261188
ISS (NAUKA)             
1 49044U 21066A   26200.25015283  .00004118  00000+0  82726-4 0  9994
2 49044  51.6315 141.4207 0006817 313.5383  46.5039 15.49048208576030
STARLINK-3100           
1 49144U 21082Q   26200.61914177  .00000022  00000+0  96411-5 0  9990
2 49144  70.0004 321.8048 0003222 271.0477  89.0313 14.98332244265746
2021-091B               
1 49316U 21091B   26200.61005943  .00000691  00000+0  36547-4 0  9998
2 49316  97.4477  27.6940 0011687 291.0332  68.9652 15.18690763263906
SDGSAT 1                
1 49387U 21100A   26200.63691903  .00001361  00000+0  67587-4 0  9999
2 49387  97.2611 246.3452 0010243 148.3888 211.7965 15.19250923260843
TEIKYOSAT-4 (OORURI)    
1 49396U 21102B   26200.07072614  .00000759  00000+0  50932-4 0  9997
2 49396  97.3661 228.3148 0012109 175.2819 184.8527 15.09606558257531
Z-SAT                   
1 49399U 21102E   26200.62169243  .00002969  00000+0  14665-3 0  9993
2 49399  97.3310 234.9619 0017954 130.1228 230.1583 15.18485043258361
HIBARI                  
1 49400U 21102F   26200.14069206  .00005834  00000+0  18894-3 0  9993
2 49400  97.3215 245.6891 0013277  89.4183 270.8580 15.32326614259081
KOSEN-1                 
1 49402U 21102H   26200.57785603  .00003885  00000+0  14779-3 0  9990
2 49402  97.3167 242.1115 0015435  94.0066 266.2938 15.27249693258967
GLOBAL-14               
1 49469U 21106A   26199.76121180  .00014858  00000+0  24419-3 0  9993
2 49469  42.0036 103.2309 0018251 247.4363 112.4550 15.51942274263035
GAOFEN-3 02             
1 49495U 21109A   26200.58714074 -.00000055  00000+0 -36077-5 0  9999
2 49495  98.4094 208.2245 0001383 239.3219 120.7834 14.42210752244984
GLOBAL-12               
1 49772U 21115BA  26200.41069562  .00016351  00000+0  24185-3 0  9990
2 49772  53.1935 249.3669 0002996  75.6439 284.4906 15.55481798260910
GLOBAL-13               
1 49773U 21115BB  26200.42907031  .00009962  00000+0  20096-3 0  9991
2 49773  53.1963 261.1759 0000198 125.7982 234.3045 15.47207090260758
GLOBAL-17               
1 49949U 21120A   26200.24170428  .00014155  00000+0  21816-3 0  9995
2 49949  41.9931 218.0446 0013586 122.5308 237.6851 15.53842059259889
GLOBAL-16               
1 49950U 21120B   26200.36437323  .00012329  00000+0  20695-3 0  9995
2 49950  41.9932 221.6689 0011550 113.3380 246.8681 15.51595508259849
XW-3 (CAS-9)            
1 50466U 21131B   26200.61187462  .00000236  00000+0  86640-4 0  9992
2 50466  98.4987 292.8268 0004315  19.0952 341.0398 14.41384001239787
ION SCV-004             
1 50993U 22002K   26200.59578752  .00002570  00000+0  89032-4 0  9999
2 50993  97.2811 257.6482 0005988 227.3722 132.7015 15.30732421250256
ETV-A1                  
1 51060U 22002CE  26200.61112994  .00005833  00000+0  14214-3 0  9994
2 51060  97.2855 266.8342 0004363 206.4695 153.6330 15.41288716250831
BRO-5                   
1 51061U 22002CF  26200.63120829  .00012841  00000+0  23856-3 0  9992
2 51061  97.2974 274.6255 0005843 186.9443 173.1728 15.49031839251278
LUDI TANCE 1-01A (L-SA*)
1 51284U 22007A   26200.58451110  .00000234  00000+0  31077-4 0  9996
2 51284  97.8107 207.5450 0001603  91.4060 268.7340 14.88411225243293
LUDI TANCE 1-01B (L-SA*)
1 51822U 22018A   26200.61812400  .00000244  00000+0  32221-4 0  9996
2 51822  97.8113 207.5766 0001651  90.4480 269.6926 14.88416847238532
