OBJECT_NAME,OBJECT_ID,EPOCH,MEAN_MOTION,ECCENTRICITY,INCLINATION,RA_OF_ASC_NODE,ARG_OF_PERICENTER,MEAN_ANOMALY,EPHEMERIS_TYPE,CLASSIFICATION_TYPE,NORAD_CAT_ID,ELEMENT_SET_NO,REV_AT_EPOCH,BSTAR,MEAN_MOTION_DOT,MEAN_MOTION_DDOT
TYVAK-0173,2021-059P,2026-07-19T04:52:36.561216,14.81977833,.00070988,96.0069,268.6012,282.5864,77.4560,0,U,48892,999,27298,.95607988E-4,.726E-5,0
MANDRAKE 2 ABLE,2021-059AE,2026-07-19T11:09:50.888448,15.56189387,.00040931,97.7031,32.7416,214.1561,145.9430,0,U,48907,999,28214,.19540064E-3,.13582E-3,0
MANDRAKE 2 BAKER,2021-059AF,2026-07-19T11:46:41.928384,15.61122598,.00031295,97.6994,35.8740,200.3020,159.8112,0,U,48908,999,28233,.19196606E-3,.16075E-3,0
PACE-1,2021-059AG,2026-07-19T12:30:15.103296,15.86049145,.00036121,97.6712,42.4635,170.2516,189.8825,0,U,48909,999,28291,.33973231E-3,.83851E-3,0
YAM-3,2021-059AN,2026-07-19T15:03:40.636224,15.49208164,.00041996,97.7000,29.7202,220.7895,139.3041,0,U,48915,999,28201,.11899499E-3,.6384E-4,0
FARADAY_PHOENIX,2021-059AX,2026-07-19T12:16:46.607520,15.88406229,.00059813,97.6756,42.3820,188.4056,171.7116,0,U,48924,999,28277,.59215756E-3,.162165E-2,.11615477E-4
DEMO8 (TENZING),2021-059CA,2026-07-19T11:14:47.051232,15.56137253,.00060427,97.7016,36.3740,213.4395,146.6478,0,U,48951,999,28232,.18470261E-3,.12812E-3,0
FENGYUN 3E,2021-062A,2026-07-19T14:47:41.584128,14.19906700,.00020614,98.7504,203.6640,31.0891,329.0407,0,U,49008,999,26118,-.2585936E-5,-.49E-6,0
ISS (NAUKA),2021-066A,2026-07-19T06:00:13.204512,15.49048208,.0006817,51.6315,141.4207,313.5383,46.5039,0,U,49044,999,57603,.82726347E-4,.4118E-4,0
STARLINK-3100,2021-082Q,2026-07-19T14:51:33.848928,14.98332244,.00032222,70.0004,321.8048,271.0477,89.0313,0,U,49144,999,26574,.9641087E-5,.22E-6,0
2021-091B,2021-091B,2026-07-19T14:38:29.134752,15.18690763,.00116871,97.4477,27.6940,291.0332,68.9652,0,U,49316,999,26390,.3654653E-4,.691E-5,0
SDGSAT 1,2021-100A,2026-07-19T15:17:09.804192,15.19250923,.00102437,97.2611,246.3452,148.3888,211.7965,0,U,49387,999,26084,.67586566E-4,.1361E-4,0
TEIKYOSAT-4 (OORURI),2021-102B,2026-07-19T01:41:50.738496,15.09606558,.00121095,97.3661,228.3148,175.2819,184.8527,0,U,49396,999,25753,.50931682E-4,.759E-5,0
Z-SAT,2021-102E,2026-07-19T14:55:14.225952,15.18485043,.00179549,97.3310,234.9619,130.1228,230.1583,0,U,49399,999,25836,.1466453E-3,.2969E-4,0
HIBARI,2021-102F,2026-07-19T03:22:35.793984,15.32326614,.00132774,97.3215,245.6891,89.4183,270.8580,0,U,49400,999,25908,.18893865E-3,.5834E-4,0
KOSEN-1,2021-102H,2026-07-19T13:52:06.760992,15.27249693,.00154355,97.3167,242.1115,94.0066,266.2938,0,U,49402,999,25896,.14779134E-3,.3885E-4,0
GLOBAL-14,2021-106A,2026-07-18T18:16:08.699520,15.51942274,.00182515,42.0036,103.2309,247.4363,112.4550,0,U,49469,999,26303,.24419325E-3,.14858E-3,0
GAOFEN-3 02,2021-109A,2026-07-19T14:05:28.959936,14.42210752,.0001383,98.4094,208.2245,239.3219,120.7834,0,U,49495,999,24498,-.3607692E-5,-.55E-6,0
GLOBAL-12,2021-115BA,2026-07-19T09:51:24.101568,15.55481798,.00029966,53.1935,249.3669,75.6439,284.4906,0,U,49772,999,26091,.24185249E-3,.16351E-3,0
GLOBAL-13,2021-115BB,2026-07-19T10:17:51.674784,15.47207090,.00001988,53.1963,261.1759,125.7982,234.3045,0,U,49773,999,26075,.20096378E-3,.9962E-4,0
GLOBAL-17,2021-120A,2026-07-19T05:48:03.249792,15.53842059,.00135869,41.9931,218.0446,122.5308,237.6851,0,U,49949,999,25988,.21816055E-3,.14155E-3,0
GLOBAL-16,2021-120B,2026-07-19T08:44:41.847072,15.51595508,.00115507,41.9932,221.6689,113.3380,246.8681,0,U,49950,999,25984,.20695304E-3,.12329E-3,0
XW-3 (CAS-9),2021-131B,2026-07-19T14:41:05.967168,14.41384001,.00043155,98.4987,292.8268,19.0952,341.0398,0,U,50466,999,23978,.86639724E-4,.236E-5,0
ION SCV-004,2022-002K,2026-07-19T14:17:56.041728,15.30732421,.00059889,97.2811,257.6482,227.3722,132.7015,0,U,50993,999,25025,.89032207E-4,.257E-4,0
ETV-A1,2022-002CE,2026-07-19T14:40:01.626816,15.41288716,.0004363,97.2855,266.8342,206.4695,153.6330,0,U,51060,999,25083,.14214163E-3,.5833E-4,0
BRO-5,2022-002CF,2026-07-19T15:08:56.396256,15.49031839,.00058436,97.2974,274.6255,186.9443,173.1728,0,U,51061,999,25127,.23856179E-3,.12841E-3,0
LUDI TANCE 1-01A (L-SAR 01A),2022-007A,2026-07-19T14:01:41.759040,14.88411225,.00016034,97.8107,207.5450,91.4060,268.7340,0,U,51284,999,24329,.31077212E-4,.234E-5,0
LUDI TANCE 1-01B (L-SAR 01B),2022-018A,2026-07-19T14:50:05.913600,14.88416847,.00016517,97.8113,207.5766,90.4480,269.6926,0,U,51822,999,23853,.3222132E-4,.244E-5,0
